start=new Date('2022-10-01T00:00:00.000Z').valueOf();
sats=[{"MEAN_MOTION":"15.06397789","PERIAPSIS":"546.231","RCS_SIZE":"LARGE","DECAY_DATE":null,"GP_ID":"213873348","RA_OF_ASC_NODE":"276.8166","COUNTRY_CODE":"US","SEMIMAJOR_AXIS":"6925.355","INCLINATION":"53.0544","APOAPSIS":"548.209","NORAD_CAT_ID":"45709","MEAN_ANOMALY":"291.2221","CLASSIFICATION_TYPE":"U","LAUNCH_DATE":"2020-06-04","MEAN_ELEMENT_THEORY":"SGP4","FILE":"3587752","SITE":"AFETR","MEAN_MOTION_DOT":"0.00000205","TIME_SYSTEM":"UTC","ARG_OF_PERICENTER":"68.8921","REF_FRAME":"TEME","REV_AT_EPOCH":"12974","BSTAR":"0.00003266800000","CENTER_NAME":"EARTH","TLE_LINE1":"1 45709U 20035BE  22273.29265451  .00000205  00000-0  32668-4 0  9991","OBJECT_NAME":"STARLINK-1421","EPOCH":"2022-09-30T07:01:25.349664","TLE_LINE2":"2 45709  53.0544 276.8166 0001428  68.8921 291.2221 15.06397789129740","ELEMENT_SET_NO":"999","ECCENTRICITY":"0.00014280","MEAN_MOTION_DDOT":"0.0000000000000","PERIOD":"95.592","OBJECT_ID":"2020-035BE","OBJECT_TYPE":"PAYLOAD","EPHEMERIS_TYPE":"0"},{"ECCENTRICITY":"0.00016430","MEAN_MOTION_DDOT":"0.0000000000000","EPHEMERIS_TYPE":"0","PERIOD":"95.592","OBJECT_ID":"2020-035BF","OBJECT_TYPE":"PAYLOAD","OBJECT_NAME":"STARLINK-1423","TLE_LINE1":"1 45710U 20035BF  22273.48799883  .00000544  00000-0  55428-4 0  9990","ELEMENT_SET_NO":"999","TLE_LINE2":"2 45710  53.0543 275.9419 0001643  67.1748 292.9414 15.06405772129812","EPOCH":"2022-09-30T11:42:43.098912","BSTAR":"0.00005542800000","CENTER_NAME":"EARTH","MEAN_MOTION_DOT":"0.00000544","TIME_SYSTEM":"UTC","FILE":"3587752","SITE":"AFETR","REV_AT_EPOCH":"12981","ARG_OF_PERICENTER":"67.1748","REF_FRAME":"TEME","NORAD_CAT_ID":"45710","CLASSIFICATION_TYPE":"U","MEAN_ELEMENT_THEORY":"SGP4","LAUNCH_DATE":"2020-06-04","MEAN_ANOMALY":"292.9414","INCLINATION":"53.0543","APOAPSIS":"548.334","SEMIMAJOR_AXIS":"6925.331","RA_OF_ASC_NODE":"275.9419","COUNTRY_CODE":"US","PERIAPSIS":"546.058","MEAN_MOTION":"15.06405772","DECAY_DATE":null,"GP_ID":"213873097","RCS_SIZE":"LARGE"},{"COUNTRY_CODE":"US","RA_OF_ASC_NODE":"274.8169","DECAY_DATE":null,"GP_ID":"213903894","RCS_SIZE":"LARGE","PERIAPSIS":"546.102","MEAN_MOTION":"15.06415622","CLASSIFICATION_TYPE":"U","MEAN_ELEMENT_THEORY":"SGP4","LAUNCH_DATE":"2020-06-04","MEAN_ANOMALY":"287.1743","NORAD_CAT_ID":"45711","INCLINATION":"53.0547","APOAPSIS":"548.229","SEMIMAJOR_AXIS":"6925.301","CENTER_NAME":"EARTH","BSTAR":"0.00031001000000","REV_AT_EPOCH":"12984","REF_FRAME":"TEME","ARG_OF_PERICENTER":"72.9415","TIME_SYSTEM":"UTC","MEAN_MOTION_DOT":"0.00004341","FILE":"3587966","SITE":"AFETR","EPHEMERIS_TYPE":"0","PERIOD":"95.591","OBJECT_ID":"2020-035BG","OBJECT_TYPE":"PAYLOAD","ECCENTRICITY":"0.00015360","MEAN_MOTION_DDOT":"0.0000000000000","ELEMENT_SET_NO":"999","TLE_LINE2":"2 45711  53.0547 274.8169 0001536  72.9415 287.1743 15.06415622129842","EPOCH":"2022-09-30T17:38:20.043744","OBJECT_NAME":"STARLINK-1433","TLE_LINE1":"1 45711U 20035BG  22273.73495421  .00004341  00000-0  31001-3 0  9999"},{"COUNTRY_CODE":"US","RA_OF_ASC_NODE":"274.8370","RCS_SIZE":"LARGE","GP_ID":"213902667","DECAY_DATE":null,"MEAN_MOTION":"15.06400785","PERIAPSIS":"546.159","MEAN_ANOMALY":"293.0588","MEAN_ELEMENT_THEORY":"SGP4","LAUNCH_DATE":"2020-06-04","CLASSIFICATION_TYPE":"U","NORAD_CAT_ID":"45712","SEMIMAJOR_AXIS":"6925.346","APOAPSIS":"548.263","INCLINATION":"53.0531","CENTER_NAME":"EARTH","BSTAR":"0.00023659000000","ARG_OF_PERICENTER":"67.0561","REF_FRAME":"TEME","REV_AT_EPOCH":"12985","SITE":"AFETR","FILE":"3587966","TIME_SYSTEM":"UTC","MEAN_MOTION_DOT":"0.00003244","OBJECT_TYPE":"PAYLOAD","PERIOD":"95.592","OBJECT_ID":"2020-035BH","EPHEMERIS_TYPE":"0","MEAN_MOTION_DDOT":"0.0000000000000","ECCENTRICITY":"0.00015190","EPOCH":"2022-09-30T17:33:02.268000","ELEMENT_SET_NO":"999","TLE_LINE2":"2 45712  53.0531 274.8370 0001519  67.0561 293.0588 15.06400785129856","OBJECT_NAME":"STARLINK-1434","TLE_LINE1":"1 45712U 20035BH  22273.73127625  .00003244  00000-0  23659-3 0  9999"},{"MEAN_ELEMENT_THEORY":"SGP4","LAUNCH_DATE":"2020-06-04","CLASSIFICATION_TYPE":"U","MEAN_ANOMALY":"292.7286","NORAD_CAT_ID":"45713","INCLINATION":"53.0535","APOAPSIS":"548.397","SEMIMAJOR_AXIS":"6925.336","COUNTRY_CODE":"US","RA_OF_ASC_NODE":"294.7312","GP_ID":"213902916","DECAY_DATE":null,"RCS_SIZE":"LARGE","PERIAPSIS":"546.005","MEAN_MOTION":"15.06404258","EPHEMERIS_TYPE":"0","OBJECT_TYPE":"PAYLOAD","PERIOD":"95.592","OBJECT_ID":"2020-035BJ","MEAN_MOTION_DDOT":"0.0000000000000","ECCENTRICITY":"0.00017270","ELEMENT_SET_NO":"999","TLE_LINE2":"2 45713  53.0535 294.7312 0001727  67.3885 292.7286 15.06404258129569","EPOCH":"2022-09-30T18:02:13.671168","OBJECT_NAME":"STARLINK-1436","TLE_LINE1":"1 45713U 20035BJ  22273.75154712  .00001648  00000-0  12948-3 0  9994","CENTER_NAME":"EARTH","BSTAR":"0.00012948000000","REV_AT_EPOCH":"12956","ARG_OF_PERICENTER":"67.3885","REF_FRAME":"TEME","TIME_SYSTEM":"UTC","MEAN_MOTION_DOT":"0.00001648","SITE":"AFETR","FILE":"3587966"},{"SEMIMAJOR_AXIS":"6925.343","INCLINATION":"53.0534","APOAPSIS":"548.384","MEAN_ANOMALY":"293.2035","CLASSIFICATION_TYPE":"U","LAUNCH_DATE":"2020-06-04","MEAN_ELEMENT_THEORY":"SGP4","NORAD_CAT_ID":"45714","RCS_SIZE":"LARGE","DECAY_DATE":null,"GP_ID":"213903168","MEAN_MOTION":"15.06401697","PERIAPSIS":"546.033","COUNTRY_CODE":"US","RA_OF_ASC_NODE":"274.7877","EPOCH":"2022-09-30T17:48:57.466656","ELEMENT_SET_NO":"999","TLE_LINE2":"2 45714  53.0534 274.7877 0001697  66.9133 293.2035 15.06401697129854","OBJECT_NAME":"STARLINK-1437","TLE_LINE1":"1 45714U 20035BK  22273.74233179  .00001860  00000-0  14373-3 0  9999","PERIOD":"95.592","OBJECT_ID":"2020-035BK","OBJECT_TYPE":"PAYLOAD","EPHEMERIS_TYPE":"0","ECCENTRICITY":"0.00016970","MEAN_MOTION_DDOT":"0.0000000000000","ARG_OF_PERICENTER":"66.9133","REF_FRAME":"TEME","REV_AT_EPOCH":"12985","FILE":"3587966","SITE":"AFETR","MEAN_MOTION_DOT":"0.00001860","TIME_SYSTEM":"UTC","CENTER_NAME":"EARTH","BSTAR":"0.00014373000000"},{"NORAD_CAT_ID":"45730","CLASSIFICATION_TYPE":"U","MEAN_ELEMENT_THEORY":"SGP4","LAUNCH_DATE":"2020-06-13","MEAN_ANOMALY":"278.1127","INCLINATION":"53.0509","APOAPSIS":"548.095","SEMIMAJOR_AXIS":"6925.313","RA_OF_ASC_NODE":"114.4450","COUNTRY_CODE":"US","PERIAPSIS":"546.261","MEAN_MOTION":"15.06411581","DECAY_DATE":null,"GP_ID":"213903895","RCS_SIZE":"LARGE","ECCENTRICITY":"0.00013240","MEAN_MOTION_DDOT":"0.0000000000000","EPHEMERIS_TYPE":"0","OBJECT_ID":"2020-038A","PERIOD":"95.591","OBJECT_TYPE":"PAYLOAD","OBJECT_NAME":"STARLINK-1461","TLE_LINE1":"1 45730U 20038A   22273.81972653  .00005467  00000-0  38550-3 0  9995","ELEMENT_SET_NO":"999","TLE_LINE2":"2 45730  53.0509 114.4450 0001324  82.0013 278.1127 15.06411581126915","EPOCH":"2022-09-30T19:40:24.372192","BSTAR":"0.00038550000000","CENTER_NAME":"EARTH","TIME_SYSTEM":"UTC","MEAN_MOTION_DOT":"0.00005467","FILE":"3587966","SITE":"AFETR","REV_AT_EPOCH":"12691","ARG_OF_PERICENTER":"82.0013","REF_FRAME":"TEME"},{"MEAN_ELEMENT_THEORY":"SGP4","LAUNCH_DATE":"2020-06-13","CLASSIFICATION_TYPE":"U","MEAN_ANOMALY":"285.3857","NORAD_CAT_ID":"45731","INCLINATION":"53.0543","APOAPSIS":"548.154","SEMIMAJOR_AXIS":"6925.308","COUNTRY_CODE":"US","RA_OF_ASC_NODE":"114.3751","GP_ID":"213902668","DECAY_DATE":null,"RCS_SIZE":"LARGE","PERIAPSIS":"546.193","MEAN_MOTION":"15.06413153","EPHEMERIS_TYPE":"0","OBJECT_TYPE":"PAYLOAD","PERIOD":"95.591","OBJECT_ID":"2020-038B","MEAN_MOTION_DDOT":"0.0000000000000","ECCENTRICITY":"0.00014160","TLE_LINE2":"2 45731  53.0543 114.3751 0001416  74.7289 285.3857 15.06413153126908","ELEMENT_SET_NO":"999","EPOCH":"2022-09-30T20:01:38.292672","TLE_LINE1":"1 45731U 20038B   22273.83447098  .00002474  00000-0  18487-3 0  9990","OBJECT_NAME":"STARLINK-1465","CENTER_NAME":"EARTH","BSTAR":"0.00018487000000","REV_AT_EPOCH":"12690","ARG_OF_PERICENTER":"74.7289","REF_FRAME":"TEME","MEAN_MOTION_DOT":"0.00002474","TIME_SYSTEM":"UTC","SITE":"AFETR","FILE":"3587966"},{"PERIOD":"95.592","OBJECT_ID":"2020-038C","OBJECT_TYPE":"PAYLOAD","EPHEMERIS_TYPE":"0","ECCENTRICITY":"0.00010670","MEAN_MOTION_DDOT":"0.0000000000000","EPOCH":"2022-09-30T19:45:43.159680","TLE_LINE2":"2 45732  53.0549 114.4241 0001067  91.1707 268.9404 15.06396889126901","ELEMENT_SET_NO":"999","OBJECT_NAME":"STARLINK-1466","TLE_LINE1":"1 45732U 20038C   22273.82341620  .00001158  00000-0  96646-4 0  9996","CENTER_NAME":"EARTH","BSTAR":"0.00009664600000","ARG_OF_PERICENTER":"91.1707","REF_FRAME":"TEME","REV_AT_EPOCH":"12690","FILE":"3587966","SITE":"AFETR","MEAN_MOTION_DOT":"0.00001158","TIME_SYSTEM":"UTC","MEAN_ANOMALY":"268.9404","CLASSIFICATION_TYPE":"U","LAUNCH_DATE":"2020-06-13","MEAN_ELEMENT_THEORY":"SGP4","NORAD_CAT_ID":"45732","SEMIMAJOR_AXIS":"6925.358","APOAPSIS":"547.962","INCLINATION":"53.0549","COUNTRY_CODE":"US","RA_OF_ASC_NODE":"114.4241","RCS_SIZE":"LARGE","DECAY_DATE":null,"GP_ID":"213902917","MEAN_MOTION":"15.06396889","PERIAPSIS":"546.484"},{"ELEMENT_SET_NO":"999","TLE_LINE2":"2 45733  53.0531 113.8629 0001966  99.1046 261.0167 15.07982179126913","EPOCH":"2022-09-30T20:40:38.014176","OBJECT_NAME":"STARLINK-1467","TLE_LINE1":"1 45733U 20038D   22273.86155109  .00012517  00000-0  82194-3 0  9999","EPHEMERIS_TYPE":"0","OBJECT_ID":"2020-038D","PERIOD":"95.492","OBJECT_TYPE":"PAYLOAD","ECCENTRICITY":"0.00019660","MEAN_MOTION_DDOT":"0.0000000000000","REV_AT_EPOCH":"12691","ARG_OF_PERICENTER":"99.1046","REF_FRAME":"TEME","MEAN_MOTION_DOT":"0.00012517","TIME_SYSTEM":"UTC","FILE":"3587966","SITE":"AFETR","CENTER_NAME":"EARTH","BSTAR":"0.00082194000000","APOAPSIS":"543.729","INCLINATION":"53.0531","SEMIMAJOR_AXIS":"6920.504","CLASSIFICATION_TYPE":"U","MEAN_ELEMENT_THEORY":"SGP4","LAUNCH_DATE":"2020-06-13","MEAN_ANOMALY":"261.0167","NORAD_CAT_ID":"45733","DECAY_DATE":null,"GP_ID":"213903169","RCS_SIZE":"LARGE","PERIAPSIS":"541.008","MEAN_MOTION":"15.07982179","COUNTRY_CODE":"US","RA_OF_ASC_NODE":"113.8629"}];
